{
  "type": "FeatureCollection",
  "features": [
    {
      "type": "Feature",
      "properties": {
        "norad_id": 41948,
        "name": "CARTOSAT-2D",
        "group": "resource",
        "lat": -77.10577383780152,
        "lon": -155.95357946804998,
        "alt_km": 518.7136092002129,
        "timestamp": "2025-12-27T13:34:48.947249+00:00",
        "meta_object_name": "CARTOSAT-2D",
        "meta_object_id": "2017-008A",
        "meta_epoch": "2025-12-27T07:41:59.228160",
        "meta_mean_motion": 15.1921198,
        "meta_eccentricity": 0.00054496,
        "meta_inclination": 97.4365,
        "meta_ra_of_asc_node": 58.5948,
        "meta_arg_of_pericenter": 113.1455,
        "meta_mean_anomaly": 247.0354,
        "meta_ephemeris_type": 0,
        "meta_classification_type": "U",
        "meta_norad_cat_id": 41948,
        "meta_element_set_no": 999,
        "meta_rev_at_epoch": 49148,
        "meta_bstar": 0.00030940528,
        "meta_mean_motion_dot": 6.449e-05,
        "meta_mean_motion_ddot": 0,
        "tle_line1": "1 41948U 17008A   25361.32082440  .00006449  00000+0  30941-3 0  9994",
        "tle_line2": "2 41948  97.4365  58.5948 0005449 113.1455 247.0354 15.19211980491481"
      },
      "geometry": {
        "type": "Point",
        "coordinates": [
          -155.95357946804998,
          -77.10577383780152
        ]
      }
    },
    {
      "type": "Feature",
      "properties": {
        "norad_id": 42063,
        "name": "SENTINEL-2B",
        "group": "resource",
        "lat": -8.903544903544432,
        "lon": -107.55125046740659,
        "alt_km": 793.1536263515363,
        "timestamp": "2025-12-27T13:34:48.947259+00:00",
        "meta_object_name": "SENTINEL-2B",
        "meta_object_id": "2017-013A",
        "meta_epoch": "2025-12-27T05:59:13.415712",
        "meta_mean_motion": 14.30817062,
        "meta_eccentricity": 0.00011692,
        "meta_inclination": 98.5694,
        "meta_ra_of_asc_node": 73.4905,
        "meta_arg_of_pericenter": 90.5418,
        "meta_mean_anomaly": 269.5899,
        "meta_ephemeris_type": 0,
        "meta_classification_type": "U",
        "meta_norad_cat_id": 42063,
        "meta_element_set_no": 999,
        "meta_rev_at_epoch": 46005,
        "meta_bstar": 0.00011196632,
        "meta_mean_motion_dot": 2.5e-06,
        "meta_mean_motion_ddot": 0,
        "tle_line1": "1 42063U 17013A   25361.24946083  .00000250  00000+0  11197-3 0  9998",
        "tle_line2": "2 42063  98.5694  73.4905 0001169  90.5418 269.5899 14.30817062460055"
      },
      "geometry": {
        "type": "Point",
        "coordinates": [
          -107.55125046740659,
          -8.903544903544432
        ]
      }
    },
    {
      "type": "Feature",
      "properties": {
        "norad_id": 42767,
        "name": "CARTOSAT-2E",
        "group": "resource",
        "lat": 11.078018008271517,
        "lon": -119.57348143833882,
        "alt_km": 507.80216437704075,
        "timestamp": "2025-12-27T13:34:48.947270+00:00",
        "meta_object_name": "CARTOSAT-2E",
        "meta_object_id": "2017-036C",
        "meta_epoch": "2025-12-27T08:05:51.926784",
        "meta_mean_motion": 15.1921916,
        "meta_eccentricity": 0.00027977,
        "meta_inclination": 97.4535,
        "meta_ra_of_asc_node": 58.7323,
        "meta_arg_of_pericenter": 165.1861,
        "meta_mean_anomaly": 194.9456,
        "meta_ephemeris_type": 0,
        "meta_classification_type": "U",
        "meta_norad_cat_id": 42767,
        "meta_element_set_no": 999,
        "meta_rev_at_epoch": 47205,
        "meta_bstar": 0.00028478774,
        "meta_mean_motion_dot": 5.93e-05,
        "meta_mean_motion_ddot": 0,
        "tle_line1": "1 42767U 17036C   25361.33740656  .00005930  00000+0  28479-3 0  9993",
        "tle_line2": "2 42767  97.4535  58.7323 0002797 165.1861 194.9456 15.19219160472053"
      },
      "geometry": {
        "type": "Point",
        "coordinates": [
          -119.57348143833882,
          11.078018008271517
        ]
      }
    },
    {
      "type": "Feature",
      "properties": {
        "norad_id": 42920,
        "name": "FORMOSAT-5",
        "group": "resource",
        "lat": 2.8873827528621447,
        "lon": -103.99560231195214,
        "alt_km": 723.7702666704145,
        "timestamp": "2025-12-27T13:34:48.947280+00:00",
        "meta_object_name": "FORMOSAT-5",
        "meta_object_id": "2017-049A",
        "meta_epoch": "2025-12-27T06:08:42.274176",
        "meta_mean_motion": 14.50769054,
        "meta_eccentricity": 0.00098712,
        "meta_inclination": 98.2436,
        "meta_ra_of_asc_node": 75.282,
        "meta_arg_of_pericenter": 251.7911,
        "meta_mean_anomaly": 108.2209,
        "meta_ephemeris_type": 0,
        "meta_classification_type": "U",
        "meta_norad_cat_id": 42920,
        "meta_element_set_no": 999,
        "meta_rev_at_epoch": 44174,
        "meta_bstar": 8.0326545e-05,
        "meta_mean_motion_dot": 2.72e-06,
        "meta_mean_motion_ddot": 0,
        "tle_line1": "1 42920U 17049A   25361.25604484  .00000272  00000+0  80327-4 0  9992",
        "tle_line2": "2 42920  98.2436  75.2820 0009871 251.7911 108.2209 14.50769054441749"
      },
      "geometry": {
        "type": "Point",
        "coordinates": [
          -103.99560231195214,
          2.8873827528621447
        ]
      }
    },
    {
      "type": "Feature",
      "properties": {
        "norad_id": 42969,
        "name": "SENTINEL-5P",
        "group": "resource",
        "lat": -15.358316405828036,
        "lon": -57.54727417344559,
        "alt_km": 831.8548953571299,
        "timestamp": "2025-12-27T13:34:48.947291+00:00",
        "meta_object_name": "SENTINEL-5P",
        "meta_object_id": "2017-064A",
        "meta_epoch": "2025-12-27T03:30:12.056832",
        "meta_mean_motion": 14.19521182,
        "meta_eccentricity": 0.0001064,
        "meta_inclination": 98.7803,
        "meta_ra_of_asc_node": 299.6036,
        "meta_arg_of_pericenter": 91.1761,
        "meta_mean_anomaly": 268.9537,
        "meta_ephemeris_type": 0,
        "meta_classification_type": "U",
        "meta_norad_cat_id": 42969,
        "meta_element_set_no": 999,
        "meta_rev_at_epoch": 42515,
        "meta_bstar": 7.5239098e-05,
        "meta_mean_motion_dot": 1.14e-06,
        "meta_mean_motion_ddot": 0,
        "tle_line1": "1 42969U 17064A   25361.14597288  .00000114  00000+0  75239-4 0  9994",
        "tle_line2": "2 42969  98.7803 299.6036 0001064  91.1761 268.9537 14.19521182425159"
      },
      "geometry": {
        "type": "Point",
        "coordinates": [
          -57.54727417344559,
          -15.358316405828036
        ]
      }
    },
    {
      "type": "Feature",
      "properties": {
        "norad_id": 42987,
        "name": "SKYSAT-C11",
        "group": "resource",
        "lat": 82.44637993561317,
        "lon": 38.578620139229315,
        "alt_km": 414.02527151593495,
        "timestamp": "2025-12-27T13:34:48.947301+00:00",
        "meta_object_name": "SKYSAT-C11",
        "meta_object_id": "2017-068A",
        "meta_epoch": "2025-12-27T06:58:54.106464",
        "meta_mean_motion": 15.48086643,
        "meta_eccentricity": 0.00011629,
        "meta_inclination": 97.4148,
        "meta_ra_of_asc_node": 139.1492,
        "meta_arg_of_pericenter": 91.979,
        "meta_mean_anomaly": 268.1594,
        "meta_ephemeris_type": 0,
        "meta_classification_type": "U",
        "meta_norad_cat_id": 42987,
        "meta_element_set_no": 999,
        "meta_rev_at_epoch": 45656,
        "meta_bstar": 0.0004891022,
        "meta_mean_motion_dot": 0.00025591,
        "meta_mean_motion_ddot": 0,
        "tle_line1": "1 42987U 17068A   25361.29090401  .00025591  00000+0  48910-3 0  9990",
        "tle_line2": "2 42987  97.4148 139.1492 0001162  91.9790 268.1594 15.48086643456565"
      },
      "geometry": {
        "type": "Point",
        "coordinates": [
          38.578620139229315,
          82.44637993561317
        ]
      }
    },
    {
      "type": "Feature",
      "properties": {
        "norad_id": 42988,
        "name": "SKYSAT-C10",
        "group": "resource",
        "lat": 56.202553780916745,
        "lon": 121.22121185977504,
        "alt_km": 463.64320721397144,
        "timestamp": "2025-12-27T13:34:48.947311+00:00",
        "meta_object_name": "SKYSAT-C10",
        "meta_object_id": "2017-068B",
        "meta_epoch": "2025-12-27T02:21:25.171200",
        "meta_mean_motion": 15.31645862,
        "meta_eccentricity": 0.00035297,
        "meta_inclination": 97.4265,
        "meta_ra_of_asc_node": 131.9896,
        "meta_arg_of_pericenter": 96.9567,
        "meta_mean_anomaly": 263.2076,
        "meta_ephemeris_type": 0,
        "meta_classification_type": "U",
        "meta_norad_cat_id": 42988,
        "meta_element_set_no": 999,
        "meta_rev_at_epoch": 45599,
        "meta_bstar": 0.00037534092,
        "meta_mean_motion_dot": 0.00011398,
        "meta_mean_motion_ddot": 0,
        "tle_line1": "1 42988U 17068B   25361.09820800  .00011398  00000+0  37534-3 0  9993",
        "tle_line2": "2 42988  97.4265 131.9896 0003529  96.9567 263.2076 15.31645862455993"
      },
      "geometry": {
        "type": "Point",
        "coordinates": [
          121.22121185977504,
          56.202553780916745
        ]
      }
    }
  ]
}